{
  "type": "FeatureCollection",
  "crs": {
    "type": "name",
    "properties": {
      "name": "urn:ogc:def:crs:OGC:1.3:CRS84"
    }
  },
  "features": [
    {
      "type": "Feature",
      "geometry": {
        "type": "Point",
        "coordinates": [
          107.7989,
          -7.1389
        ]
      },
      "properties": {
        "id": "pltp_kamojang",
        "name": "Kamojang",
        "capacity_mw": 235.0,
        "year_commissioned": 1983,
        "lat": -7.1389,
        "long": 107.7989,
        "province": "Jawa Barat",
        "island": "Java",
        "operator": "PT Pertamina Geothermal Energy",
        "emission_factor_g_per_kwh": 73,
        "confidence": "high",
        "source_name": "ESDM Technology Catalogue 2024 \u00a71 Table 1.5 + PLN PLTP list",
        "source_url": "https://www.esdm.go.id/en/publication/technology-data-power-sector",
        "retrieved_date": "2026-05-08"
      }
    },
    {
      "type": "Feature",
      "geometry": {
        "type": "Point",
        "coordinates": [
          106.7178,
          -6.7242
        ]
      },
      "properties": {
        "id": "pltp_salak",
        "name": "Salak",
        "capacity_mw": 377.0,
        "year_commissioned": 1994,
        "lat": -6.7242,
        "long": 106.7178,
        "province": "Jawa Barat",
        "island": "Java",
        "operator": "Star Energy Geothermal Salak",
        "emission_factor_g_per_kwh": 50,
        "confidence": "high",
        "source_name": "ESDM Technology Catalogue 2024 \u00a71 Table 1.5 + PLN PLTP list",
        "source_url": "https://www.esdm.go.id/en/publication/technology-data-power-sector",
        "retrieved_date": "2026-05-08"
      }
    },
    {
      "type": "Feature",
      "geometry": {
        "type": "Point",
        "coordinates": [
          107.6368,
          -7.2046
        ]
      },
      "properties": {
        "id": "pltp_wayang_windu",
        "name": "Wayang Windu",
        "capacity_mw": 227.0,
        "year_commissioned": 2000,
        "lat": -7.2046,
        "long": 107.6368,
        "province": "Jawa Barat",
        "island": "Java",
        "operator": "Star Energy Geothermal Wayang Windu",
        "emission_factor_g_per_kwh": 73,
        "confidence": "high",
        "source_name": "ESDM Technology Catalogue 2024 \u00a71 Table 1.5 + PLN PLTP list",
        "source_url": "https://www.esdm.go.id/en/publication/technology-data-power-sector",
        "retrieved_date": "2026-05-08"
      }
    },
    {
      "type": "Feature",
      "geometry": {
        "type": "Point",
        "coordinates": [
          107.7522,
          -7.1697
        ]
      },
      "properties": {
        "id": "pltp_darajat",
        "name": "Darajat",
        "capacity_mw": 271.0,
        "year_commissioned": 1994,
        "lat": -7.1697,
        "long": 107.7522,
        "province": "Jawa Barat",
        "island": "Java",
        "operator": "Star Energy Geothermal Darajat",
        "emission_factor_g_per_kwh": 50,
        "confidence": "high",
        "source_name": "ESDM Technology Catalogue 2024 \u00a71 Table 1.5 + PLN PLTP list",
        "source_url": "https://www.esdm.go.id/en/publication/technology-data-power-sector",
        "retrieved_date": "2026-05-08"
      }
    },
    {
      "type": "Feature",
      "geometry": {
        "type": "Point",
        "coordinates": [
          107.4103,
          -7.1639
        ]
      },
      "properties": {
        "id": "pltp_patuha",
        "name": "Patuha",
        "capacity_mw": 55.0,
        "year_commissioned": 2014,
        "lat": -7.1639,
        "long": 107.4103,
        "province": "Jawa Barat",
        "island": "Java",
        "operator": "PT Geo Dipa Energi",
        "emission_factor_g_per_kwh": 50,
        "confidence": "high",
        "source_name": "ESDM Technology Catalogue 2024 \u00a71 Table 1.5 + PLN PLTP list",
        "source_url": "https://www.esdm.go.id/en/publication/technology-data-power-sector",
        "retrieved_date": "2026-05-08"
      }
    },
    {
      "type": "Feature",
      "geometry": {
        "type": "Point",
        "coordinates": [
          108.0822,
          -7.3211
        ]
      },
      "properties": {
        "id": "pltp_karaha",
        "name": "Karaha",
        "capacity_mw": 30.0,
        "year_commissioned": 2018,
        "lat": -7.3211,
        "long": 108.0822,
        "province": "Jawa Barat",
        "island": "Java",
        "operator": "PT Pertamina Geothermal Energy",
        "emission_factor_g_per_kwh": 50,
        "confidence": "high",
        "source_name": "ESDM Technology Catalogue 2024 \u00a71 Table 1.5 + PLN PLTP list",
        "source_url": "https://www.esdm.go.id/en/publication/technology-data-power-sector",
        "retrieved_date": "2026-05-08"
      }
    },
    {
      "type": "Feature",
      "geometry": {
        "type": "Point",
        "coordinates": [
          109.9158,
          -7.2056
        ]
      },
      "properties": {
        "id": "pltp_dieng",
        "name": "Dieng",
        "capacity_mw": 60.0,
        "year_commissioned": 2002,
        "lat": -7.2056,
        "long": 109.9158,
        "province": "Jawa Tengah",
        "island": "Java",
        "operator": "PT Geo Dipa Energi",
        "emission_factor_g_per_kwh": 50,
        "confidence": "high",
        "source_name": "ESDM Technology Catalogue 2024 \u00a71 Table 1.5 + PLN PLTP list",
        "source_url": "https://www.esdm.go.id/en/publication/technology-data-power-sector",
        "retrieved_date": "2026-05-08"
      }
    },
    {
      "type": "Feature",
      "geometry": {
        "type": "Point",
        "coordinates": [
          99.0533,
          1.7456
        ]
      },
      "properties": {
        "id": "pltp_sarulla",
        "name": "Sarulla",
        "capacity_mw": 330.0,
        "year_commissioned": 2017,
        "lat": 1.7456,
        "long": 99.0533,
        "province": "Sumatera Utara",
        "island": "Sumatra",
        "operator": "Sarulla Operations Ltd (consortium)",
        "emission_factor_g_per_kwh": 50,
        "confidence": "high",
        "source_name": "ESDM Technology Catalogue 2024 \u00a71 Table 1.5 + PLN PLTP list",
        "source_url": "https://www.esdm.go.id/en/publication/technology-data-power-sector",
        "retrieved_date": "2026-05-08"
      }
    },
    {
      "type": "Feature",
      "geometry": {
        "type": "Point",
        "coordinates": [
          98.4906,
          3.2342
        ]
      },
      "properties": {
        "id": "pltp_sibayak",
        "name": "Sibayak",
        "capacity_mw": 12.0,
        "year_commissioned": 2008,
        "lat": 3.2342,
        "long": 98.4906,
        "province": "Sumatera Utara",
        "island": "Sumatra",
        "operator": "PT Pertamina Geothermal Energy",
        "emission_factor_g_per_kwh": 50,
        "confidence": "high",
        "source_name": "ESDM Technology Catalogue 2024 \u00a71 Table 1.5 + PLN PLTP list",
        "source_url": "https://www.esdm.go.id/en/publication/technology-data-power-sector",
        "retrieved_date": "2026-05-08"
      }
    },
    {
      "type": "Feature",
      "geometry": {
        "type": "Point",
        "coordinates": [
          99.5364,
          0.6855
        ]
      },
      "properties": {
        "id": "pltp_sorik_marapi",
        "name": "Sorik Marapi",
        "capacity_mw": 240.0,
        "year_commissioned": 2019,
        "lat": 0.6855,
        "long": 99.5364,
        "province": "Sumatera Utara",
        "island": "Sumatra",
        "operator": "PT Sorik Marapi Geothermal Power",
        "emission_factor_g_per_kwh": 50,
        "confidence": "high",
        "source_name": "ESDM Technology Catalogue 2024 \u00a71 Table 1.5 + PLN PLTP list",
        "source_url": "https://www.esdm.go.id/en/publication/technology-data-power-sector",
        "retrieved_date": "2026-05-08"
      }
    },
    {
      "type": "Feature",
      "geometry": {
        "type": "Point",
        "coordinates": [
          101.1678,
          -1.5256
        ]
      },
      "properties": {
        "id": "pltp_muara_laboh",
        "name": "Muara Laboh",
        "capacity_mw": 85.0,
        "year_commissioned": 2019,
        "lat": -1.5256,
        "long": 101.1678,
        "province": "Sumatera Barat",
        "island": "Sumatra",
        "operator": "PT Supreme Energy Muara Laboh",
        "emission_factor_g_per_kwh": 50,
        "confidence": "high",
        "source_name": "ESDM Technology Catalogue 2024 \u00a71 Table 1.5 + PLN PLTP list",
        "source_url": "https://www.esdm.go.id/en/publication/technology-data-power-sector",
        "retrieved_date": "2026-05-08"
      }
    },
    {
      "type": "Feature",
      "geometry": {
        "type": "Point",
        "coordinates": [
          103.6183,
          -4.2706
        ]
      },
      "properties": {
        "id": "pltp_lumut_balai",
        "name": "Lumut Balai",
        "capacity_mw": 110.0,
        "year_commissioned": 2019,
        "lat": -4.2706,
        "long": 103.6183,
        "province": "Sumatera Selatan",
        "island": "Sumatra",
        "operator": "PT Pertamina Geothermal Energy",
        "emission_factor_g_per_kwh": 50,
        "confidence": "high",
        "source_name": "ESDM Technology Catalogue 2024 \u00a71 Table 1.5 + PLN PLTP list",
        "source_url": "https://www.esdm.go.id/en/publication/technology-data-power-sector",
        "retrieved_date": "2026-05-08"
      }
    },
    {
      "type": "Feature",
      "geometry": {
        "type": "Point",
        "coordinates": [
          104.5469,
          -5.2392
        ]
      },
      "properties": {
        "id": "pltp_ulubelu",
        "name": "Ulubelu",
        "capacity_mw": 220.0,
        "year_commissioned": 2012,
        "lat": -5.2392,
        "long": 104.5469,
        "province": "Lampung",
        "island": "Sumatra",
        "operator": "PT Pertamina Geothermal Energy",
        "emission_factor_g_per_kwh": 43,
        "confidence": "high",
        "source_name": "ESDM Technology Catalogue 2024 \u00a71 Table 1.5 + PLN PLTP list",
        "source_url": "https://www.esdm.go.id/en/publication/technology-data-power-sector",
        "retrieved_date": "2026-05-08"
      }
    },
    {
      "type": "Feature",
      "geometry": {
        "type": "Point",
        "coordinates": [
          124.835,
          1.2486
        ]
      },
      "properties": {
        "id": "pltp_lahendong",
        "name": "Lahendong",
        "capacity_mw": 120.0,
        "year_commissioned": 2001,
        "lat": 1.2486,
        "long": 124.835,
        "province": "Sulawesi Utara",
        "island": "Sulawesi",
        "operator": "PT Pertamina Geothermal Energy",
        "emission_factor_g_per_kwh": 50,
        "confidence": "high",
        "source_name": "ESDM Technology Catalogue 2024 \u00a71 Table 1.5 + PLN PLTP list",
        "source_url": "https://www.esdm.go.id/en/publication/technology-data-power-sector",
        "retrieved_date": "2026-05-08"
      }
    },
    {
      "type": "Feature",
      "geometry": {
        "type": "Point",
        "coordinates": [
          120.4872,
          -8.7039
        ]
      },
      "properties": {
        "id": "pltp_ulumbu",
        "name": "Ulumbu",
        "capacity_mw": 10.0,
        "year_commissioned": 2012,
        "lat": -8.7039,
        "long": 120.4872,
        "province": "Nusa Tenggara Timur",
        "island": "Lesser Sundas",
        "operator": "PT PLN (Persero)",
        "emission_factor_g_per_kwh": 50,
        "confidence": "medium",
        "source_name": "ESDM Technology Catalogue 2024 \u00a71 Table 1.5 + PLN PLTP list",
        "source_url": "https://www.esdm.go.id/en/publication/technology-data-power-sector",
        "retrieved_date": "2026-05-08"
      }
    },
    {
      "type": "Feature",
      "geometry": {
        "type": "Point",
        "coordinates": [
          121.0367,
          -8.7944
        ]
      },
      "properties": {
        "id": "pltp_mataloko",
        "name": "Mataloko",
        "capacity_mw": 2.5,
        "year_commissioned": 2011,
        "lat": -8.7944,
        "long": 121.0367,
        "province": "Nusa Tenggara Timur",
        "island": "Lesser Sundas",
        "operator": "PT PLN (Persero)",
        "emission_factor_g_per_kwh": 50,
        "confidence": "medium",
        "source_name": "ESDM Technology Catalogue 2024 \u00a71 Table 1.5 + PLN PLTP list",
        "source_url": "https://www.esdm.go.id/en/publication/technology-data-power-sector",
        "retrieved_date": "2026-05-08"
      }
    },
    {
      "type": "Feature",
      "geometry": {
        "type": "Point",
        "coordinates": [
          121.6469,
          -8.8656
        ]
      },
      "properties": {
        "id": "pltp_sokoria",
        "name": "Sokoria",
        "capacity_mw": 30.0,
        "year_commissioned": 2022,
        "lat": -8.8656,
        "long": 121.6469,
        "province": "Nusa Tenggara Timur",
        "island": "Lesser Sundas",
        "operator": "PT Sokoria Geothermal Indonesia",
        "emission_factor_g_per_kwh": 50,
        "confidence": "high",
        "source_name": "ESDM Technology Catalogue 2024 \u00a71 Table 1.5 + PLN PLTP list",
        "source_url": "https://www.esdm.go.id/en/publication/technology-data-power-sector",
        "retrieved_date": "2026-05-08"
      }
    },
    {
      "type": "Feature",
      "geometry": {
        "type": "Point",
        "coordinates": [
          108.0689,
          -6.7894
        ]
      },
      "properties": {
        "id": "pltp_tampomas",
        "name": "Tampomas",
        "capacity_mw": 45.0,
        "year_commissioned": 2023,
        "lat": -6.7894,
        "long": 108.0689,
        "province": "Jawa Barat",
        "island": "Java",
        "operator": "PT Pertamina Geothermal Energy",
        "emission_factor_g_per_kwh": 50,
        "confidence": "medium",
        "source_name": "ESDM Technology Catalogue 2024 \u00a71 Table 1.5 + PLN PLTP list",
        "source_url": "https://www.esdm.go.id/en/publication/technology-data-power-sector",
        "retrieved_date": "2026-05-08"
      }
    }
  ]
}