{
  "type": "FeatureCollection",
  "crs": {
    "type": "name",
    "properties": {
      "name": "urn:ogc:def:crs:OGC:1.3:CRS84"
    }
  },
  "features": [
    {
      "type": "Feature",
      "geometry": {
        "type": "Point",
        "coordinates": [
          107.6368,
          -7.2046
        ]
      },
      "properties": {
        "id": "pipeline_wayang_windu_2",
        "name": "PLTP Wayang Windu Unit 2",
        "capacity_mw": 60.0,
        "target_year": 2027,
        "lat": -7.2046,
        "long": 107.6368,
        "province": "Jawa Barat",
        "island": "Java",
        "scenario": "RE Base",
        "confidence": "high",
        "source_name": "RUPTL 2025-2034 (KEPMEN ESDM 188.K/TL.03/MEM.L/2025) Tabel 3.2 + 3.3",
        "source_url": "https://gatrik.esdm.go.id/dialog/lihat_kepmen.php?id=294",
        "retrieved_date": "2026-05-08"
      }
    },
    {
      "type": "Feature",
      "geometry": {
        "type": "Point",
        "coordinates": [
          107.4103,
          -7.1639
        ]
      },
      "properties": {
        "id": "pipeline_patuha_2",
        "name": "PLTP Patuha Unit 2",
        "capacity_mw": 55.0,
        "target_year": 2028,
        "lat": -7.1639,
        "long": 107.4103,
        "province": "Jawa Barat",
        "island": "Java",
        "scenario": "RE Base",
        "confidence": "high",
        "source_name": "RUPTL 2025-2034 (KEPMEN ESDM 188.K/TL.03/MEM.L/2025) Tabel 3.2 + 3.3",
        "source_url": "https://gatrik.esdm.go.id/dialog/lihat_kepmen.php?id=294",
        "retrieved_date": "2026-05-08"
      }
    },
    {
      "type": "Feature",
      "geometry": {
        "type": "Point",
        "coordinates": [
          109.9158,
          -7.2056
        ]
      },
      "properties": {
        "id": "pipeline_dieng_2",
        "name": "PLTP Dieng Unit 2",
        "capacity_mw": 60.0,
        "target_year": 2026,
        "lat": -7.2056,
        "long": 109.9158,
        "province": "Jawa Tengah",
        "island": "Java",
        "scenario": "RE Base",
        "confidence": "high",
        "source_name": "RUPTL 2025-2034 (KEPMEN ESDM 188.K/TL.03/MEM.L/2025) Tabel 3.2 + 3.3",
        "source_url": "https://gatrik.esdm.go.id/dialog/lihat_kepmen.php?id=294",
        "retrieved_date": "2026-05-08"
      }
    },
    {
      "type": "Feature",
      "geometry": {
        "type": "Point",
        "coordinates": [
          107.7989,
          -7.1389
        ]
      },
      "properties": {
        "id": "pipeline_kamojang_5_6",
        "name": "PLTP Kamojang Unit 5-6",
        "capacity_mw": 60.0,
        "target_year": 2029,
        "lat": -7.1389,
        "long": 107.7989,
        "province": "Jawa Barat",
        "island": "Java",
        "scenario": "RE Base",
        "confidence": "high",
        "source_name": "RUPTL 2025-2034 (KEPMEN ESDM 188.K/TL.03/MEM.L/2025) Tabel 3.2 + 3.3",
        "source_url": "https://gatrik.esdm.go.id/dialog/lihat_kepmen.php?id=294",
        "retrieved_date": "2026-05-08"
      }
    },
    {
      "type": "Feature",
      "geometry": {
        "type": "Point",
        "coordinates": [
          106.7178,
          -6.7242
        ]
      },
      "properties": {
        "id": "pipeline_salak_expansion",
        "name": "PLTP Salak Expansion",
        "capacity_mw": 40.0,
        "target_year": 2031,
        "lat": -6.7242,
        "long": 106.7178,
        "province": "Jawa Barat",
        "island": "Java",
        "scenario": "RE Base",
        "confidence": "high",
        "source_name": "RUPTL 2025-2034 (KEPMEN ESDM 188.K/TL.03/MEM.L/2025) Tabel 3.2 + 3.3",
        "source_url": "https://gatrik.esdm.go.id/dialog/lihat_kepmen.php?id=294",
        "retrieved_date": "2026-05-08"
      }
    },
    {
      "type": "Feature",
      "geometry": {
        "type": "Point",
        "coordinates": [
          99.0533,
          1.7456
        ]
      },
      "properties": {
        "id": "pipeline_sarulla_2",
        "name": "PLTP Sarulla Unit 2",
        "capacity_mw": 110.0,
        "target_year": 2028,
        "lat": 1.7456,
        "long": 99.0533,
        "province": "Sumatera Utara",
        "island": "Sumatra",
        "scenario": "RE Base",
        "confidence": "high",
        "source_name": "RUPTL 2025-2034 (KEPMEN ESDM 188.K/TL.03/MEM.L/2025) Tabel 3.2 + 3.3",
        "source_url": "https://gatrik.esdm.go.id/dialog/lihat_kepmen.php?id=294",
        "retrieved_date": "2026-05-08"
      }
    },
    {
      "type": "Feature",
      "geometry": {
        "type": "Point",
        "coordinates": [
          103.6183,
          -4.2706
        ]
      },
      "properties": {
        "id": "pipeline_lumut_balai_2",
        "name": "PLTP Lumut Balai Unit 2",
        "capacity_mw": 55.0,
        "target_year": 2027,
        "lat": -4.2706,
        "long": 103.6183,
        "province": "Sumatera Selatan",
        "island": "Sumatra",
        "scenario": "RE Base",
        "confidence": "high",
        "source_name": "RUPTL 2025-2034 (KEPMEN ESDM 188.K/TL.03/MEM.L/2025) Tabel 3.2 + 3.3",
        "source_url": "https://gatrik.esdm.go.id/dialog/lihat_kepmen.php?id=294",
        "retrieved_date": "2026-05-08"
      }
    },
    {
      "type": "Feature",
      "geometry": {
        "type": "Point",
        "coordinates": [
          101.1678,
          -1.5256
        ]
      },
      "properties": {
        "id": "pipeline_muara_laboh_2",
        "name": "PLTP Muara Laboh Unit 2",
        "capacity_mw": 80.0,
        "target_year": 2027,
        "lat": -1.5256,
        "long": 101.1678,
        "province": "Sumatera Barat",
        "island": "Sumatra",
        "scenario": "RE Base",
        "confidence": "high",
        "source_name": "RUPTL 2025-2034 (KEPMEN ESDM 188.K/TL.03/MEM.L/2025) Tabel 3.2 + 3.3",
        "source_url": "https://gatrik.esdm.go.id/dialog/lihat_kepmen.php?id=294",
        "retrieved_date": "2026-05-08"
      }
    },
    {
      "type": "Feature",
      "geometry": {
        "type": "Point",
        "coordinates": [
          99.5364,
          0.6855
        ]
      },
      "properties": {
        "id": "pipeline_sorik_marapi_2",
        "name": "PLTP Sorik Marapi Unit 2",
        "capacity_mw": 40.0,
        "target_year": 2029,
        "lat": 0.6855,
        "long": 99.5364,
        "province": "Sumatera Utara",
        "island": "Sumatra",
        "scenario": "RE Base",
        "confidence": "high",
        "source_name": "RUPTL 2025-2034 (KEPMEN ESDM 188.K/TL.03/MEM.L/2025) Tabel 3.2 + 3.3",
        "source_url": "https://gatrik.esdm.go.id/dialog/lihat_kepmen.php?id=294",
        "retrieved_date": "2026-05-08"
      }
    },
    {
      "type": "Feature",
      "geometry": {
        "type": "Point",
        "coordinates": [
          103.4167,
          -4.0833
        ]
      },
      "properties": {
        "id": "pipeline_rantau_dadap",
        "name": "PLTP Rantau Dedap",
        "capacity_mw": 91.0,
        "target_year": 2026,
        "lat": -4.0833,
        "long": 103.4167,
        "province": "Sumatera Selatan",
        "island": "Sumatra",
        "scenario": "RE Base",
        "confidence": "medium",
        "source_name": "RUPTL 2025-2034 (KEPMEN ESDM 188.K/TL.03/MEM.L/2025) Tabel 3.2 + 3.3",
        "source_url": "https://gatrik.esdm.go.id/dialog/lihat_kepmen.php?id=294",
        "retrieved_date": "2026-05-08"
      }
    },
    {
      "type": "Feature",
      "geometry": {
        "type": "Point",
        "coordinates": [
          102.4083,
          -3.4111
        ]
      },
      "properties": {
        "id": "pipeline_hululais",
        "name": "PLTP Hululais",
        "capacity_mw": 110.0,
        "target_year": 2028,
        "lat": -3.4111,
        "long": 102.4083,
        "province": "Bengkulu",
        "island": "Sumatra",
        "scenario": "RE Base",
        "confidence": "medium",
        "source_name": "RUPTL 2025-2034 (KEPMEN ESDM 188.K/TL.03/MEM.L/2025) Tabel 3.2 + 3.3",
        "source_url": "https://gatrik.esdm.go.id/dialog/lihat_kepmen.php?id=294",
        "retrieved_date": "2026-05-08"
      }
    },
    {
      "type": "Feature",
      "geometry": {
        "type": "Point",
        "coordinates": [
          95.6597,
          5.4475
        ]
      },
      "properties": {
        "id": "pipeline_seulawah",
        "name": "PLTP Seulawah Agam",
        "capacity_mw": 55.0,
        "target_year": 2031,
        "lat": 5.4475,
        "long": 95.6597,
        "province": "Aceh",
        "island": "Sumatra",
        "scenario": "RE Base",
        "confidence": "medium",
        "source_name": "RUPTL 2025-2034 (KEPMEN ESDM 188.K/TL.03/MEM.L/2025) Tabel 3.2 + 3.3",
        "source_url": "https://gatrik.esdm.go.id/dialog/lihat_kepmen.php?id=294",
        "retrieved_date": "2026-05-08"
      }
    },
    {
      "type": "Feature",
      "geometry": {
        "type": "Point",
        "coordinates": [
          98.7297,
          2.5969
        ]
      },
      "properties": {
        "id": "pipeline_simbolon_samosir",
        "name": "PLTP Simbolon Samosir",
        "capacity_mw": 110.0,
        "target_year": 2032,
        "lat": 2.5969,
        "long": 98.7297,
        "province": "Sumatera Utara",
        "island": "Sumatra",
        "scenario": "RE Base",
        "confidence": "medium",
        "source_name": "RUPTL 2025-2034 (KEPMEN ESDM 188.K/TL.03/MEM.L/2025) Tabel 3.2 + 3.3",
        "source_url": "https://gatrik.esdm.go.id/dialog/lihat_kepmen.php?id=294",
        "retrieved_date": "2026-05-08"
      }
    },
    {
      "type": "Feature",
      "geometry": {
        "type": "Point",
        "coordinates": [
          124.835,
          1.2486
        ]
      },
      "properties": {
        "id": "pipeline_lahendong_5_6",
        "name": "PLTP Lahendong Unit 5-6",
        "capacity_mw": 40.0,
        "target_year": 2029,
        "lat": 1.2486,
        "long": 124.835,
        "province": "Sulawesi Utara",
        "island": "Sulawesi",
        "scenario": "RE Base",
        "confidence": "high",
        "source_name": "RUPTL 2025-2034 (KEPMEN ESDM 188.K/TL.03/MEM.L/2025) Tabel 3.2 + 3.3",
        "source_url": "https://gatrik.esdm.go.id/dialog/lihat_kepmen.php?id=294",
        "retrieved_date": "2026-05-08"
      }
    },
    {
      "type": "Feature",
      "geometry": {
        "type": "Point",
        "coordinates": [
          124.3294,
          0.735
        ]
      },
      "properties": {
        "id": "pipeline_kotamobagu",
        "name": "PLTP Kotamobagu",
        "capacity_mw": 40.0,
        "target_year": 2032,
        "lat": 0.735,
        "long": 124.3294,
        "province": "Sulawesi Utara",
        "island": "Sulawesi",
        "scenario": "RE Base",
        "confidence": "medium",
        "source_name": "RUPTL 2025-2034 (KEPMEN ESDM 188.K/TL.03/MEM.L/2025) Tabel 3.2 + 3.3",
        "source_url": "https://gatrik.esdm.go.id/dialog/lihat_kepmen.php?id=294",
        "retrieved_date": "2026-05-08"
      }
    },
    {
      "type": "Feature",
      "geometry": {
        "type": "Point",
        "coordinates": [
          103.6183,
          -4.2706
        ]
      },
      "properties": {
        "id": "pipeline_lumut_balai_3",
        "name": "PLTP Lumut Balai Unit 3-4",
        "capacity_mw": 110.0,
        "target_year": 2031,
        "lat": -4.2706,
        "long": 103.6183,
        "province": "Sumatera Selatan",
        "island": "Sumatra",
        "scenario": "ARED",
        "confidence": "high",
        "source_name": "RUPTL 2025-2034 (KEPMEN ESDM 188.K/TL.03/MEM.L/2025) Tabel 3.2 + 3.3",
        "source_url": "https://gatrik.esdm.go.id/dialog/lihat_kepmen.php?id=294",
        "retrieved_date": "2026-05-08"
      }
    },
    {
      "type": "Feature",
      "geometry": {
        "type": "Point",
        "coordinates": [
          120.4872,
          -8.7039
        ]
      },
      "properties": {
        "id": "pipeline_ulumbu_expansion",
        "name": "PLTP Ulumbu Unit 5-6",
        "capacity_mw": 40.0,
        "target_year": 2027,
        "lat": -8.7039,
        "long": 120.4872,
        "province": "Nusa Tenggara Timur",
        "island": "Lesser Sundas",
        "scenario": "RE Base",
        "confidence": "high",
        "source_name": "RUPTL 2025-2034 (KEPMEN ESDM 188.K/TL.03/MEM.L/2025) Tabel 3.2 + 3.3",
        "source_url": "https://gatrik.esdm.go.id/dialog/lihat_kepmen.php?id=294",
        "retrieved_date": "2026-05-08"
      }
    },
    {
      "type": "Feature",
      "geometry": {
        "type": "Point",
        "coordinates": [
          123.475,
          -8.5611
        ]
      },
      "properties": {
        "id": "pipeline_atadei",
        "name": "PLTP Atadei",
        "capacity_mw": 10.0,
        "target_year": 2028,
        "lat": -8.5611,
        "long": 123.475,
        "province": "Nusa Tenggara Timur",
        "island": "Lesser Sundas",
        "scenario": "RE Base",
        "confidence": "medium",
        "source_name": "RUPTL 2025-2034 (KEPMEN ESDM 188.K/TL.03/MEM.L/2025) Tabel 3.2 + 3.3",
        "source_url": "https://gatrik.esdm.go.id/dialog/lihat_kepmen.php?id=294",
        "retrieved_date": "2026-05-08"
      }
    },
    {
      "type": "Feature",
      "geometry": {
        "type": "Point",
        "coordinates": [
          122.6217,
          -4.0083
        ]
      },
      "properties": {
        "id": "pipeline_lainea",
        "name": "PLTP Lainea (working area)",
        "capacity_mw": 20.0,
        "target_year": 2033,
        "lat": -4.0083,
        "long": 122.6217,
        "province": "Sulawesi Tenggara",
        "island": "Sulawesi",
        "scenario": "ARED",
        "confidence": "medium",
        "source_name": "RUPTL 2025-2034 (KEPMEN ESDM 188.K/TL.03/MEM.L/2025) Tabel 3.2 + 3.3",
        "source_url": "https://gatrik.esdm.go.id/dialog/lihat_kepmen.php?id=294",
        "retrieved_date": "2026-05-08"
      }
    },
    {
      "type": "Feature",
      "geometry": {
        "type": "Point",
        "coordinates": [
          95.375,
          5.795
        ]
      },
      "properties": {
        "id": "pipeline_jaboi",
        "name": "PLTP Jaboi",
        "capacity_mw": 5.0,
        "target_year": 2030,
        "lat": 5.795,
        "long": 95.375,
        "province": "Aceh",
        "island": "Sumatra",
        "scenario": "RE Base",
        "confidence": "medium",
        "source_name": "RUPTL 2025-2034 (KEPMEN ESDM 188.K/TL.03/MEM.L/2025) Tabel 3.2 + 3.3",
        "source_url": "https://gatrik.esdm.go.id/dialog/lihat_kepmen.php?id=294",
        "retrieved_date": "2026-05-08"
      }
    },
    {
      "type": "Feature",
      "geometry": {
        "type": "Point",
        "coordinates": [
          102.0,
          -1.0
        ]
      },
      "properties": {
        "id": "pipeline_western_indonesia_aggregated",
        "name": "Sumatera RE Base aggregated working areas",
        "capacity_mw": 800.0,
        "target_year": 2032,
        "lat": -1.0,
        "long": 102.0,
        "province": "Sumatra (aggregated)",
        "island": "Sumatra",
        "scenario": "RE Base",
        "confidence": "low",
        "source_name": "RUPTL 2025-2034 (KEPMEN ESDM 188.K/TL.03/MEM.L/2025) Tabel 3.2 + 3.3",
        "source_url": "https://gatrik.esdm.go.id/dialog/lihat_kepmen.php?id=294",
        "retrieved_date": "2026-05-08"
      }
    },
    {
      "type": "Feature",
      "geometry": {
        "type": "Point",
        "coordinates": [
          121.0,
          -2.5
        ]
      },
      "properties": {
        "id": "pipeline_eastern_indonesia_aggregated",
        "name": "Eastern Indonesia RE Base aggregated working areas",
        "capacity_mw": 200.0,
        "target_year": 2033,
        "lat": -2.5,
        "long": 121.0,
        "province": "Sulawesi/Maluku (aggregated)",
        "island": "Sulawesi",
        "scenario": "RE Base",
        "confidence": "low",
        "source_name": "RUPTL 2025-2034 (KEPMEN ESDM 188.K/TL.03/MEM.L/2025) Tabel 3.2 + 3.3",
        "source_url": "https://gatrik.esdm.go.id/dialog/lihat_kepmen.php?id=294",
        "retrieved_date": "2026-05-08"
      }
    }
  ]
}